ONEWEB-0156             
1 48052U 21025L   23280.58934108  .00000096  00000+0  22665-3 0  9990
2 48052  87.8975 155.9353 0001681  77.8944 282.2374 13.13468280124451
ONEWEB-0161             
1 48053U 21025M   23280.40947801 -.00001886  00000+0 -52005-2 0  9996
2 48053  87.9041 155.9665 0001419  88.8770 271.2522 13.13481011124361
ONEWEB-0158             
1 48054U 21025N   23280.60204488 -.00000197  00000+0 -57522-3 0  9990
2 48054  87.8971 155.9384 0001990  78.9701 281.1652 13.13469460124514
ONEWEB-0157             
1 48055U 21025P   23279.93972211  .00000072  00000+0  16311-3 0  9992
2 48055  87.9050 156.0649 0001479  76.6175 283.5119 13.13471168124367
ONEWEB-0162             
1 48056U 21025Q   23280.58722599  .00000070  00000+0  15740-3 0  9991
2 48056  87.9049 155.9353 0001676  79.2027 280.9291 13.13468471124422
ONEWEB-0155             
1 48057U 21025R   23280.37986050 -.00000321  00000+0 -91371-3 0  9998
2 48057  87.9050 155.9826 0001706  74.4879 285.6438 13.13469333124531
ONEWEB-0149             
1 48058U 21025S   23280.40102486  .00000051  00000+0  10360-3 0  9993
2 48058  87.9047 155.9767 0001592  90.5008 269.6303 13.13471445124347
ONEWEB-0148             
1 48059U 21025T   23280.59356902 -.00000058  00000+0 -19344-3 0  9998
2 48059  87.9045 155.9460 0001210 103.3425 256.7839 13.13468526124492
